OBJECT_NAME,OBJECT_ID,EPOCH,MEAN_MOTION,ECCENTRICITY,INCLINATION,RA_OF_ASC_NODE,ARG_OF_PERICENTER,MEAN_ANOMALY,EPHEMERIS_TYPE,CLASSIFICATION_TYPE,NORAD_CAT_ID,ELEMENT_SET_NO,REV_AT_EPOCH,BSTAR,MEAN_MOTION_DOT,MEAN_MOTION_DDOT
ONEWEB-0578,2023-043X,2026-07-06T04:16:30.257472,13.21826027,.00022585,87.9244,240.1940,89.2657,270.8736,0,U,56067,999,16074,.2133669E-3,.101E-5,0
ONEWEB-0579,2023-043Y,2026-07-06T04:04:22.210464,13.21828268,.00019885,87.9249,240.1936,104.4214,255.7141,0,U,56068,999,16075,.19914081E-3,.95E-6,0
ONEWEB-0581,2023-043Z,2026-07-06T01:45:51.229440,13.16594560,.00016162,87.9078,225.0336,83.7465,276.3850,0,U,56069,999,16144,.59191949E-4,.35E-6,0
ONEWEB-0609,2023-043AA,2026-07-06T04:41:48.855840,13.15547089,.00021273,87.8992,255.4243,98.8708,261.2663,0,U,56070,999,15893,.15732063E-3,.72E-6,0
ONEWEB-0613,2023-043AB,2026-07-06T04:38:24.087840,13.15548141,.00020935,87.8993,255.4371,105.7859,254.3502,0,U,56071,999,15893,.27205269E-3,.115E-5,0
ONEWEB-0630,2023-043AC,2026-07-06T04:31:33.855456,13.15549396,.00020429,87.8999,255.4108,105.5432,254.5924,0,U,56072,999,15892,.42924462E-3,.174E-5,0
ONEWEB-0632,2023-043AD,2026-07-06T04:24:43.207488,13.15547937,.00018686,87.8992,255.4289,96.7620,263.3723,0,U,56073,999,15892,.5360819E-3,.215E-5,0
ONEWEB-0633,2023-043AE,2026-07-06T04:15:35.744256,13.15548407,.00022553,87.9000,255.4072,108.9541,251.1834,0,U,56074,999,15890,.57821665E-3,.231E-5,0
ONEWEB-0634,2023-043AF,2026-07-06T03:55:03.421056,13.15547902,.00023427,87.8989,255.4489,95.2336,264.9062,0,U,56075,999,15889,.32981938E-3,.137E-5,0
ONEWEB-0635,2023-043AG,2026-07-06T03:48:12.456000,13.15547809,.00018081,87.8999,255.4139,95.0338,265.0998,0,U,56076,999,15892,.98948772E-4,.5E-6,0
ONEWEB-0636,2023-043AH,2026-07-06T03:36:47.207232,13.15547470,.00018811,87.8999,255.4212,95.3215,264.8130,0,U,56077,999,15890,-.79113326E-4,-.17E-6,0
ONEWEB-0637,2023-043AJ,2026-07-06T03:27:40.169088,13.15548339,.00020902,87.8992,255.4381,90.7369,269.4001,0,U,56078,999,15892,-.10361749E-3,-.26E-6,0
ONEWEB-0647,2023-043AK,2026-07-06T03:20:49.802784,13.15548705,.00019259,87.8992,255.4515,100.5658,259.5690,0,U,56079,999,15891,-.36020759E-3,-.123E-5,0
ONEWEB-0651,2023-043AL,2026-07-06T05:03:30.360384,13.15548073,.00019203,87.8992,255.4305,92.4794,267.6556,0,U,56080,999,16012,.55088407E-4,.34E-6,0
ONEWEB-0718,2023-043AM,2026-07-06T03:07:08.540544,13.15548973,.00025588,87.8993,255.4269,97.9025,262.2396,0,U,56081,999,15892,-.11722887E-3,-.31E-6,0
ONEWEB-0561,2023-068A,2026-07-06T05:06:09.258624,13.20771521,.0001663,87.9195,270.6524,100.7551,259.3769,0,U,56710,999,15201,-.71944501E-3,-.28E-5,0
ONEWEB-0668,2023-068B,2026-07-06T02:58:48.548064,13.16594892,.00025049,87.9084,225.0113,86.1637,273.9780,0,U,56711,999,15427,-.57690843E-4,-.9E-7,0
ONEWEB-0676,2023-068C,2026-07-06T03:10:12.812736,13.16594098,.00017905,87.9084,225.0160,89.3500,270.7836,0,U,56712,999,15419,-.76028452E-4,-.16E-6,0
ONEWEB-0677,2023-068D,2026-07-06T04:49:13.487520,13.20772173,.00020651,87.9193,270.6463,87.7785,272.3585,0,U,56713,999,15231,-.38204064E-3,-.142E-5,0
ONEWEB-0678,2023-068E,2026-07-06T04:11:01.641984,13.15547742,.00019219,87.9001,255.4122,106.5405,253.5936,0,U,56714,999,15178,.39869795E-3,.163E-5,0
ONEWEB-0679,2023-068F,2026-07-06T04:00:21.805920,13.16593927,.00022119,87.9082,225.0004,79.7978,280.3402,0,U,56715,999,15422,.1736226E-3,.79E-6,0
ONEWEB-0680,2023-068G,2026-07-06T04:06:47.397024,13.21825549,.00024461,87.9248,240.1949,85.4810,274.6603,0,U,56716,999,15360,.82467896E-4,.47E-6,0
ONEWEB-0681,2023-068H,2026-07-06T03:38:56.066784,13.21824630,.00012848,87.9248,240.1992,79.7208,280.4070,0,U,56717,999,15359,.44568104E-3,.197E-5,0
ONEWEB-0682,2023-068J,2026-07-06T04:45:15.458112,13.15548160,.00023767,87.9000,255.4077,87.6319,272.5083,0,U,56718,999,15195,.13847634E-3,.65E-6,0
ONEWEB-0683,2023-068K,2026-07-06T03:29:57.210720,13.15548348,.00022804,87.9002,255.4184,95.2592,264.8798,0,U,56719,999,15191,-.41584397E-4,-.3E-7,0
ONEWEB-0684,2023-068L,2026-07-06T03:41:22.047360,13.15549099,.00026217,87.9000,255.4064,129.2172,230.9191,0,U,56720,999,15174,-.11330017E-3,-.3E-6,0
ONEWEB-0686,2023-068M,2026-07-06T03:03:22.131936,13.16594048,.00024094,87.9074,225.0297,97.0996,263.0409,0,U,56721,999,15420,-.11172773E-3,-.3E-6,0
ONEWEB-0694,2023-068N,2026-07-06T03:12:29.116512,13.16593582,.00024135,87.9093,224.9969,86.5928,273.5479,0,U,56722,999,15426,-.17185164E-4,.6E-7,0
ONEWEB-0696,2023-068P,2026-07-06T04:29:16.992672,13.15549617,.00018457,87.8993,255.4367,111.9701,248.1625,0,U,56723,999,15186,.4005083E-3,.164E-5,0
ONEWEB-0703,2023-068Q,2026-07-06T04:42:57.605184,13.15547545,.00013873,87.8994,255.4158,119.8684,240.2584,0,U,56724,999,15175,.18543048E-3,.83E-6,0
