[
  {
    "name": "ONEWEB-0578",
    "noradId": "56067",
    "line1": "1 56067U 23043X   26187.17812798  .00000101  00000+0  21337-3 0  9993",
    "line2": "2 56067  87.9244 240.1940 0002258  89.2657 270.8736 13.21826027160747"
  },
  {
    "name": "ONEWEB-0579",
    "noradId": "56068",
    "line1": "1 56068U 23043Y   26187.16970151  .00000095  00000+0  19914-3 0  9991",
    "line2": "2 56068  87.9249 240.1936 0001988 104.4214 255.7141 13.21828268160758"
  },
  {
    "name": "ONEWEB-0581",
    "noradId": "56069",
    "line1": "1 56069U 23043Z   26187.07350960  .00000035  00000+0  59192-4 0  9999",
    "line2": "2 56069  87.9078 225.0336 0001616  83.7465 276.3850 13.16594560161442"
  },
  {
    "name": "ONEWEB-0609",
    "noradId": "56070",
    "line1": "1 56070U 23043AA  26187.19570435  .00000072  00000+0  15732-3 0  9997",
    "line2": "2 56070  87.8992 255.4243 0002127  98.8708 261.2663 13.15547089158935"
  },
  {
    "name": "ONEWEB-0613",
    "noradId": "56071",
    "line1": "1 56071U 23043AB  26187.19333435  .00000115  00000+0  27205-3 0  9991",
    "line2": "2 56071  87.8993 255.4371 0002093 105.7859 254.3502 13.15548141158931"
  },
  {
    "name": "ONEWEB-0630",
    "noradId": "56072",
    "line1": "1 56072U 23043AC  26187.18858629  .00000174  00000+0  42924-3 0  9998",
    "line2": "2 56072  87.8999 255.4108 0002042 105.5432 254.5924 13.15549396158927"
  },
  {
    "name": "ONEWEB-0632",
    "noradId": "56073",
    "line1": "1 56073U 23043AD  26187.18383342  .00000215  00000+0  53608-3 0  9991",
    "line2": "2 56073  87.8992 255.4289 0001868  96.7620 263.3723 13.15547937158920"
  },
  {
    "name": "ONEWEB-0633",
    "noradId": "56074",
    "line1": "1 56074U 23043AE  26187.17749704  .00000231  00000+0  57822-3 0  9999",
    "line2": "2 56074  87.9000 255.4072 0002255 108.9541 251.1834 13.15548407158900"
  },
  {
    "name": "ONEWEB-0634",
    "noradId": "56075",
    "line1": "1 56075U 23043AF  26187.16323404  .00000137  00000+0  32982-3 0  9999",
    "line2": "2 56075  87.8989 255.4489 0002342  95.2336 264.9062 13.15547902158897"
  },
  {
    "name": "ONEWEB-0635",
    "noradId": "56076",
    "line1": "1 56076U 23043AG  26187.15847750  .00000050  00000+0  98949-4 0  9994",
    "line2": "2 56076  87.8999 255.4139 0001808  95.0338 265.0998 13.15547809158927"
  },
  {
    "name": "ONEWEB-0636",
    "noradId": "56077",
    "line1": "1 56077U 23043AH  26187.15054638 -.00000017  00000+0 -79113-4 0  9997",
    "line2": "2 56077  87.8999 255.4212 0001881  95.3215 264.8130 13.15547470158905"
  },
  {
    "name": "ONEWEB-0637",
    "noradId": "56078",
    "line1": "1 56078U 23043AJ  26187.14421492 -.00000026  00000+0 -10362-3 0  9993",
    "line2": "2 56078  87.8992 255.4381 0002090  90.7369 269.4001 13.15548339158923"
  },
  {
    "name": "ONEWEB-0647",
    "noradId": "56079",
    "line1": "1 56079U 23043AK  26187.13946531 -.00000123  00000+0 -36021-3 0  9997",
    "line2": "2 56079  87.8992 255.4515 0001925 100.5658 259.5690 13.15548705158910"
  },
  {
    "name": "ONEWEB-0651",
    "noradId": "56080",
    "line1": "1 56080U 23043AL  26187.21076806  .00000034  00000+0  55088-4 0  9991",
    "line2": "2 56080  87.8992 255.4305 0001920  92.4794 267.6556 13.15548073160129"
  },
  {
    "name": "ONEWEB-0718",
    "noradId": "56081",
    "line1": "1 56081U 23043AM  26187.12995996 -.00000031  00000+0 -11723-3 0  9998",
    "line2": "2 56081  87.8993 255.4269 0002558  97.9025 262.2396 13.15548973158922"
  },
  {
    "name": "ONEWEB-0561",
    "noradId": "56710",
    "line1": "1 56710U 23068A   26187.21260716 -.00000280  00000+0 -71945-3 0  9997",
    "line2": "2 56710  87.9195 270.6524 0001663 100.7551 259.3769 13.20771521152010"
  },
  {
    "name": "ONEWEB-0668",
    "noradId": "56711",
    "line1": "1 56711U 23068B   26187.12417301 -.00000009  00000+0 -57691-4 0  9994",
    "line2": "2 56711  87.9084 225.0113 0002504  86.1637 273.9780 13.16594892154277"
  },
  {
    "name": "ONEWEB-0676",
    "noradId": "56712",
    "line1": "1 56712U 23068C   26187.13209274 -.00000016  00000+0 -76028-4 0  9997",
    "line2": "2 56712  87.9084 225.0160 0001790  89.3500 270.7836 13.16594098154196"
  },
  {
    "name": "ONEWEB-0677",
    "noradId": "56713",
    "line1": "1 56713U 23068D   26187.20085055 -.00000142  00000+0 -38204-3 0  9998",
    "line2": "2 56713  87.9193 270.6463 0002065  87.7785 272.3585 13.20772173152311"
  },
  {
    "name": "ONEWEB-0678",
    "noradId": "56714",
    "line1": "1 56714U 23068E   26187.17432456  .00000163  00000+0  39870-3 0  9997",
    "line2": "2 56714  87.9001 255.4122 0001921 106.5405 253.5936 13.15547742151789"
  },
  {
    "name": "ONEWEB-0679",
    "noradId": "56715",
    "line1": "1 56715U 23068F   26187.16691905  .00000079  00000+0  17362-3 0  9991",
    "line2": "2 56715  87.9082 225.0004 0002211  79.7978 280.3402 13.16593927154225"
  },
  {
    "name": "ONEWEB-0680",
    "noradId": "56716",
    "line1": "1 56716U 23068G   26187.17138191  .00000047  00000+0  82468-4 0  9991",
    "line2": "2 56716  87.9248 240.1949 0002446  85.4810 274.6603 13.21825549153609"
  },
  {
    "name": "ONEWEB-0681",
    "noradId": "56717",
    "line1": "1 56717U 23068H   26187.15203781  .00000197  00000+0  44568-3 0  9992",
    "line2": "2 56717  87.9248 240.1992 0001284  79.7208 280.4070 13.21824630153595"
  },
  {
    "name": "ONEWEB-0682",
    "noradId": "56718",
    "line1": "1 56718U 23068J   26187.19809558  .00000065  00000+0  13848-3 0  9992",
    "line2": "2 56718  87.9000 255.4077 0002376  87.6319 272.5083 13.15548160151957"
  },
  {
    "name": "ONEWEB-0683",
    "noradId": "56719",
    "line1": "1 56719U 23068K   26187.14580105 -.00000003  00000+0 -41584-4 0  9995",
    "line2": "2 56719  87.9002 255.4184 0002280  95.2592 264.8798 13.15548348151912"
  },
  {
    "name": "ONEWEB-0684",
    "noradId": "56720",
    "line1": "1 56720U 23068L   26187.15372740 -.00000030  00000+0 -11330-3 0  9997",
    "line2": "2 56720  87.9000 255.4064 0002621 129.2172 230.9191 13.15549099151746"
  },
  {
    "name": "ONEWEB-0686",
    "noradId": "56721",
    "line1": "1 56721U 23068M   26187.12733949 -.00000030  00000+0 -11173-3 0  9992",
    "line2": "2 56721  87.9074 225.0297 0002409  97.0996 263.0409 13.16594048154207"
  },
  {
    "name": "ONEWEB-0694",
    "noradId": "56722",
    "line1": "1 56722U 23068N   26187.13367033  .00000006  00000+0 -17185-4 0  9993",
    "line2": "2 56722  87.9093 224.9969 0002413  86.5928 273.5479 13.16593582154267"
  },
  {
    "name": "ONEWEB-0696",
    "noradId": "56723",
    "line1": "1 56723U 23068P   26187.18700223  .00000164  00000+0  40051-3 0  9992",
    "line2": "2 56723  87.8993 255.4367 0001845 111.9701 248.1625 13.15549617151860"
  },
  {
    "name": "ONEWEB-0703",
    "noradId": "56724",
    "line1": "1 56724U 23068Q   26187.19650006  .00000083  00000+0  18543-3 0  9998",
    "line2": "2 56724  87.8994 255.4158 0001387 119.8684 240.2584 13.15547545151751"
  }
]